UFO 11 (USA 174)        
1 28117U 03057A   25012.55066203 -.00000105  00000+0  00000+0 0  9996
2 28117   8.3988  36.0731 0004107 247.0780 102.6039  1.00273345 77209
USA 176 (DSP 22)        
1 28158U 04004A   25012.80384440 -.00000225  00000+0  00000+0 0  9991
2 28158  11.3479  29.6935 0001549 278.4643 181.1336  1.00272375 27715
ABS-4 (MOBISAT-1)       
1 28184U 04007A   25012.83351522  .00000036  00000+0  00000+0 0  9990
2 28184   4.7185  78.3487 0007039 215.2049 180.0469  1.00272663 47128
EUTELSAT 7A             
1 28187U 04008A   25012.72234661  .00000101  00000+0  00000+0 0  9999
2 28187   4.5043  78.2193 0004591 213.9786 301.0408  1.00270861 76137
AMC-11                  
1 28252U 04017A   25012.87087385 -.00000048  00000+0  00000+0 0  9998
2 28252   0.0203 345.9177 0002849 310.8033  18.2809  1.00270841 75657
INTELSAT 10-02          
1 28358U 04022A   25012.95126068 -.00000010  00000+0  00000+0 0  9991
2 28358   0.0252 289.0257 0001253  43.5583 121.5226  1.00271084 75340
ANIK F2                 
1 28378U 04027A   25012.87078698 -.00000050  00000+0  00000+0 0  9998
2 28378   1.9402  86.4471 0001446 278.9763 309.5313  1.00272530 36040
AMC-15                  
1 28446U 04041A   25012.65770750 -.00000087  00000+0  00000+0 0  9994
2 28446   0.0144   7.6757 0002506 278.2321 318.1939  1.00272106 74098
NSS-10                  
1 28526U 05003A   25013.03938319 -.00000255  00000+0  00000+0 0  9999
2 28526   5.1453  76.7351 0003316 211.6658 161.0746  1.00271281 73102
XTAR-EUR                
1 28542U 05005A   25012.83693926  .00000149  00000+0  00000+0 0  9999
2 28542   2.9910  83.2212 0006751 214.7691 144.8491  1.00272734 72962
XM-3 (RHYTHM)           
1 28626U 05008A   25012.94741558 -.00000204  00000+0  00000+0 0  9995
2 28626   0.0076  70.4127 0004798 156.6393 141.5253  1.00269715 72855
INMARSAT 4-F1           
1 28628U 05009A   25012.85679921  .00000030  00000+0  00000+0 0  9998
2 28628   4.5079  41.8512 0002563 261.7771 295.4235  1.00272214 72458
DIRECTV 8               
1 28659U 05019A   25012.94072580  .00000002  00000+0  00000+0 0  9990
2 28659   0.0151 326.3298 0003235 327.4174  38.5182  1.00271492 71970
GALAXY 28 (G-28)        
1 28702U 05022A   25012.51799494 -.00000185  00000+0  00000+0 0  9999
2 28702   1.9535  85.4694 0006677 198.1338 286.1047  1.00269984 46769
THAICOM 4               
1 28786U 05028A   25012.83831229 -.00000362  00000+0  00000+0 0  9992
2 28786   0.0175  30.3192 0002740 254.6010 248.9265  1.00270838 47034
GALAXY 14 (G-14)        
1 28790U 05030A   25012.52112265 -.00000098  00000+0  00000+0 0  9994
2 28790   3.6786  81.2851 0001653 225.9447 279.2273  0.98939812 71066
ANIK F1R                
1 28868U 05036A   25012.87156890 -.00000076  00000+0  00000+0 0  9992
2 28868   2.9753  83.0929 0001712 222.1326  13.8321  1.00271405 41238
SYRACUSE 3A             
1 28885U 05041B   25012.88451870  .00000128  00000+0  00000+0 0  9991
2 28885   3.3124  82.3506 0002733 217.4332 153.0395  1.00273196 70537
INMARSAT 4-F2           
1 28899U 05044A   25012.99276721 -.00000263  00000+0  00000+0 0  9992
2 28899   4.4302  43.1587 0003040 252.0738 318.3621  1.00270251 70282
SPACEWAY 2              
1 28903U 05046B   25012.89354965 -.00000156  00000+0  00000+0 0  9997
2 28903   4.1354  77.7598 0001560  80.2603 279.5409  0.99064702 46110
METEOSAT-9 (MSG-2)      
1 28912U 05049B   25012.73452080  .00000119  00000+0  00000+0 0  9998
2 28912   8.1710  59.0608 0001695 210.9657 152.6515  1.00277557  1796
EUTELSAT 174A           
1 28924U 05052A   25012.92734619  .00000008  00000+0  00000+0 0  9994
2 28924   2.8966  82.9975 0006545 210.5018 326.9971  1.00274143 69762
ECHOSTAR 10             
1 28935U 06003A   25012.87104762 -.00000054  00000+0  00000+0 0  9999
2 28935   0.0262 316.2025 0002062 300.6979  59.0526  1.00271499 69243
SPAINSAT                
1 28945U 06007A   25012.77061123 -.00000215  00000+0  00000+0 0  9995
2 28945   0.0507 225.7119 0005074  47.9218  86.2836  1.00271219 68994
EUTELSAT HOTBIRD 13E    
1 28946U 06007B   25012.88972692 -.00000126  00000+0  00000+0 0  9991
2 28946   0.7547  93.7134 0001559 230.4491  92.7220  1.00272812 69105
JCSAT-5A                
1 29045U 06010A   25012.89494057 -.00000327  00000+0  00000+0 0  9994
2 29045   0.0312 282.7923 0001919  27.2561 256.7903  1.00271733 68554
ASTRA 1KR               
1 29055U 06012A   25013.14198446  .00000121  00000+0  00000+0 0  9990
2 29055   0.0336 305.8273 0004548 314.1315 283.2203  1.00274458 68535
EWS-G1 (GOES 13)        
1 29155U 06018A   25012.87895375 -.00000101  00000+0  00000+0 0  9990
2 29155   3.1754  82.7901 0065396 258.2912  17.5746  0.98829884 38107
GALAXY 16 (G-16)        
1 29236U 06023A   25012.87321963 -.00000125  00000+0  00000+0 0  9999
2 29236   0.0062 282.9044 0003013  12.0168  33.0045  1.00270334 67756
EUTELSAT HOTBIRD 13B    
1 29270U 06032A   25012.88174492  .00000156  00000+0  00000+0 0  9994
2 29270   0.3147  86.5132 0004848 215.8829 160.7017  1.00270516 42090
JCSAT-3A                
1 29272U 06033A   25012.89494057 -.00000344  00000+0  00000+0 0  9990
2 29272   0.0160 357.2541 0002004 304.4936 261.0438  1.00270717 42525
SYRACUSE 3B             
1 29273U 06033B   25012.89563328  .00000021  00000+0  00000+0 0  9990
2 29273   1.5633  86.7993 0005568 205.2178 146.3350  1.00270888 67452
KOREASAT 5 (MUGUNGWHA 5)
1 29349U 06034A   25012.86709238 -.00000358  00000+0  00000+0 0  9998
2 29349   0.4350  91.1594 0002165 237.2679 209.3644  1.00270982 36107
DIRECTV 9S              
1 29494U 06043A   25012.87278524 -.00000113  00000+0  00000+0 0  9998
2 29494   1.0746  87.3226 0003471 212.1592  26.0973  1.00271300 46161
OPTUS D1                
1 29495U 06043B   25012.92308904 -.00000184  00000+0  00000+0 0  9999
2 29495   1.6895  86.2288 0003945 207.1039 303.6062  1.00272416 66923
BADR-4                  
1 29526U 06051A   25012.88174492  .00000145  00000+0  00000+0 0  9997
2 29526   0.6588  85.9025 0008808 222.3179 148.0345  1.00273363 46057
WILDBLUE-1              
1 29643U 06054A   25012.72764632 -.00000049  00000+0  00000+0 0  9998
2 29643   1.4562  87.3609 0002144 205.8379 330.0008  1.00270422 48578
SKYNET 5A               
1 30794U 07007B   25013.16577178 -.00000274  00000+0  00000+0 0  9992
2 30794   3.9715  80.0487 0004251 222.6116 325.0835  1.00270138 65435
ANIK F3                 
1 31102U 07009A   25012.72643000  .00000001  00000+0  00000+0 0  9994
2 31102   0.0262  54.4097 0001985 247.2385 313.6243  1.00269095 41348
ASTRA 1L                
1 31306U 07016A   25012.75379735  .00000121  00000+0  00000+0 0  9995
2 31306   0.0547 332.8461 0005197 325.4430 104.7343  1.00273003 39764
GALAXY 17 (G-17)        
1 31307U 07016B   25012.51877687 -.00000206  00000+0  00000+0 0  9994
2 31307   1.6495  86.6361 0006458 197.6432 289.7381  1.00272798 64853
ZHONGXING-6B            
1 31800U 07031A   25012.83560818 -.00000362  00000+0  00000+0 0  9992
2 31800   1.0535  88.2129 0004794 206.8792 233.5647  1.00273630 64211
DIRECTV 10              
1 31862U 07032A   25012.94394036 -.00000102  00000+0  00000+0 0  9992
2 31862   0.0063  81.0146 0000577 204.2299  64.4329  1.00270109 64185
BSAT-3A                 
1 32019U 07036B   25013.04771722 -.00000349  00000+0  00000+0 0  9997
2 32019   0.0144 220.5248 0003763  50.3960 328.8756  1.00267844 63854
OPTUS D2                
1 32252U 07044A   25012.85323712 -.00000109  00000+0  00000+0 0  9999
2 32252   0.7256  88.8320 0007297 199.7483 291.2908  1.00271721 63350
INTELSAT 11 (IS-11)     
1 32253U 07044B   25012.88434032 -.00000270  00000+0  00000+0 0  9990
2 32253   2.2087  85.1733 0004494 218.4634  84.3131  1.00270393 63275
WGS F1 (USA 195)        
1 32258U 07046A   25012.29907193 -.00000265  00000+0  00000+0 0  9999
2 32258   0.0792  87.4518 0000536 190.2707 259.4415  1.00267809 47119
SKYNET 5B               
1 32294U 07056B   25012.88451870  .00000138  00000+0  00000+0 0  9999
2 32294   3.9230  79.7169 0003877 217.3097 159.0753  1.00273536 62984
ASTRA 4A                
1 32299U 07057A   25012.89563328  .00000033  00000+0  00000+0 0  9992
2 32299   0.0487 285.7440 0002919 356.2898 157.7971  1.00271218 46434
HORIZONS-2              
1 32388U 07063B   25012.87825869 -.00000253  00000+0  00000+0 0  9992
2 32388   1.2563  87.1784 0002274 212.1728  55.5957  1.00269607 62595
THURAYA-3               
1 32404U 08001A   25012.86014760 -.00000304  00000+0  00000+0 0  9990
2 32404   5.1501  33.9591 0002843 258.4664 228.3014  1.00271058 62270
THOR 5                  
1 32487U 08006A   25012.74988773 -.00000008  00000+0  00000+0 0  9998
2 32487   0.0485 237.8433 0002747  58.9084  84.9098  1.00271120 62096
AMC-14                  
1 32708U 08011A   25007.75182264  .00000068  00000+0  00000+0 0  9991
2 32708  23.3560  26.8414 0041026 350.7379  18.1273  1.00271921 62905
DIRECTV 11              
1 32729U 08013A   25012.65883693 -.00000124  00000+0  00000+0 0  9999
2 32729   0.0107 286.2238 0000766 315.2490   8.9047  1.00270264 40371
ICO G1                  
1 32763U 08016A   25012.66005326 -.00000174  00000+0  00000+0 0  9995
2 32763   5.2287  36.3124 0002367 270.9019 309.9387  1.00271595 61323
VINASAT-1               
1 32767U 08018A   25012.89494057 -.00000328  00000+0  00000+0 0  9990
2 32767   0.0205 325.8318 0002165 344.4209 256.4713  1.00269687 61378
STAR ONE C2             
1 32768U 08018B   25012.87999632 -.00000275  00000+0  00000+0 0  9999
2 32768   0.0311 340.6951 0002909 315.9969  67.6975  1.00271815 61432
AMOS-3                  
1 32794U 08022A   25013.16576852 -.00000035  00000+0  00000+0 0  9995
2 32794   0.0102 293.1212 0003246 346.1742 249.1385  1.00272662 61232
GALAXY 18 (G-18)        
1 32951U 08024A   25012.72556118  .00000027  00000+0  00000+0 0  9996
2 32951   0.0289  56.1157 0003261 240.5233 314.0107  1.00270412 40633
